NORAD_CAT_ID,OBJECT_NAME,OBJECT_TYPE,EPOCH,MEAN_MOTION,ECCENTRICITY,INCLINATION,RA_OF_ASC_NODE,ARG_OF_PERICENTER,MEAN_ANOMALY,BSTAR,MEAN_MOTION_DOT,MEAN_MOTION_DDOT,TLE_LINE0,TLE_LINE1,TLE_LINE2,SEMIMAJOR_AXIS,PERIOD,APOGEE,PERIGEE,DECAYED
48148,STARLINK-2491,PAYLOAD,2021-07-06 22:00:01,15.06408885,8.56e-05,53.0537,273.6053,120.7632,305.3968,-0.0021132,-0.00031625,0.0,0 STARLINK-2491,1 48148U 21027BJ  21187.91668981 -.00031625  00000-0 -21132-2 0  9994,2 48148  53.0537 273.6053 0000856 120.7632 305.3968 15.06408885 14763,6925.321,95.59200000000001,547.779,546.594,0.0
48148,STARLINK-2491,PAYLOAD,2021-07-07 14:00:01,15.06390968,8.329999999999999e-05,53.053999999999995,270.6138,111.8221,331.6358,0.00089969,0.00013141,0.0,0 STARLINK-2491,1 48148U 21027BJ  21188.58334491  .00013141  00000-0  89969-3 0  9998,2 48148  53.0540 270.6138 0000833 111.8221 331.6358 15.06390968 14866,6925.376,95.59299999999999,547.818,546.664,0.0
48148,STARLINK-2491,PAYLOAD,2021-07-07 20:00:01,15.06417677,7.47e-05,53.0538,269.4909,114.5613,245.3964,-0.0020052,-0.00030037,0.0,0 STARLINK-2491,1 48148U 21027BJ  21188.83334491 -.00030037  00000-0 -20052-2 0  9998,2 48148  53.0538 269.4909 0000747 114.5613 245.3964 15.06417677  3582,6925.294,95.59100000000001,547.677,546.6419999999998,0.0
48148,STARLINK-2491,PAYLOAD,2021-07-08 11:55:26,15.06397918,8.209999999999999e-05,53.0546,266.51099999999997,123.5825,236.5242,7.4875e-05,8.34e-06,0.0,0 STARLINK-2491,1 48148U 21027BJ  21189.49683401  .00000834  00000-0  74875-4 0  9993,2 48148  53.0546 266.5110 0000821 123.5825 236.5242 15.06397918 15399,6925.355,95.59200000000001,547.789,546.651,0.0
48148,STARLINK-2491,PAYLOAD,2021-07-08 13:30:58,15.06399013,8.09e-05,53.0546,266.2131,123.1848,236.9219,6.5495e-05,6.94e-06,0.0,0 STARLINK-2491,1 48148U 21027BJ  21189.56318039  .00000694  00000-0  65495-4 0  9995,2 48148  53.0546 266.2131 0000809 123.1848 236.9219 15.06399013 15011,6925.352,95.59200000000001,547.7769999999998,546.656,0.0
48148,STARLINK-2491,PAYLOAD,2021-07-09 10:12:59,15.06402497,7.53e-05,53.0546,262.3413,123.6093,236.4967,5.4786999999999996e-05,5.35e-06,0.0,0 STARLINK-2491,1 48148U 21027BJ  21190.42568522  .00000535  00000-0  54787-4 0  9992,2 48148  53.0546 262.3413 0000753 123.6093 236.4967 15.06402497 15539,6925.3409999999985,95.59200000000001,547.727,546.684,0.0
48148,STARLINK-2491,PAYLOAD,2021-07-09 13:24:03,15.06403558,7.13e-05,53.0545,261.7456,122.6423,237.4635,5.1744e-05,4.9000000000000005e-06,0.0,0 STARLINK-2491,1 48148U 21027BJ  21190.55837780  .00000490  00000-0  51744-4 0  9991,2 48148  53.0545 261.7456 0000713 122.6423 237.4635 15.06403558 15554,6925.3380000000025,95.59200000000001,547.696,546.7090000000002,0.0
48148,STARLINK-2491,PAYLOAD,2021-07-10 03:43:54,15.06407951,6.6e-05,53.0544,259.0649,122.7654,237.3399,5.1077e-05,4.8e-06,0.0,0 STARLINK-2491,1 48148U 21027BJ  21191.15549353  .00000480  00000-0  51077-4 0  9992,2 48148  53.0544 259.0649 0000660 122.7654 237.3399 15.06407951 15259,6925.324000000001,95.59200000000001,547.646,546.732,0.0
48148,STARLINK-2491,PAYLOAD,2021-07-10 10:06:04,15.06396444,6.47e-05,53.0544,257.8736,122.1857,237.9195,-4.9193e-05,-1.014e-05,0.0,0 STARLINK-2491,1 48148U 21027BJ  21191.42089087 -.00001014  00000-0 -49193-4 0  9997,2 48148  53.0544 257.8736 0000647 122.1857 237.9195 15.06396444 15294,6925.359,95.59200000000001,547.673,546.776,0.0
48148,STARLINK-2491,PAYLOAD,2021-07-10 21:14:51,15.06394292,6.37e-05,53.0544,255.7885,119.4759,240.6294,-7.3976e-05,-1.383e-05,0.0,0 STARLINK-2491,1 48148U 21027BJ  21191.88532124 -.00001383  00000-0 -73976-4 0  9997,2 48148  53.0544 255.7885 0000637 119.4759 240.6294 15.06394292 15756,6925.366,95.59299999999999,547.672,546.79,0.0
48148,STARLINK-2491,PAYLOAD,2021-07-11 11:34:43,15.06394684,6.11e-05,53.0543,253.1078,117.2652,242.8399,-6.7233e-05,-1.282e-05,0.0,0 STARLINK-2491,1 48148U 21027BJ  21192.48244300 -.00001282  00000-0 -67233-4 0  9997,2 48148  53.0543 253.1078 0000611 117.2652 242.8399 15.06394684 15453,6925.365,95.59200000000001,547.653,546.807,0.0
48148,STARLINK-2491,PAYLOAD,2021-07-12 13:03:21,15.06387449,6.04e-05,53.0542,248.3425,114.9693,245.1359,3.023e-05,1.69e-06,0.0,0 STARLINK-2491,1 48148U 21027BJ  21193.54399601  .00000169  00000-0  30230-4 0  9998,2 48148  53.0542 248.3425 0000604 114.9693 245.1359 15.06387449 16000,6925.387,95.59299999999999,547.67,546.8340000000002,0.0
48148,STARLINK-2491,PAYLOAD,2021-07-13 12:56:27,15.06390032,5.460000000000001e-05,53.0541,243.875,111.9534,248.1513,2.0218e-05,2e-07,0.0,0 STARLINK-2491,1 48148U 21027BJ  21194.53920177  .00000020  00000-0  20218-4 0  9997,2 48148  53.0541 243.8750 0000546 111.9534 248.1513 15.06390032 16159,6925.379,95.59299999999999,547.622,546.866,0.0
48148,STARLINK-2491,PAYLOAD,2021-07-14 03:16:18,15.063920300000001,5.05e-05,53.0539,241.1945,108.1331,251.9713,2.6263000000000002e-05,1.1e-06,0.0,0 STARLINK-2491,1 48148U 21027BJ  21195.13632392  .00000110  00000-0  26263-4 0  9999,2 48148  53.0539 241.1945 0000505 108.1331 251.9713 15.06392030 15851,6925.373000000001,95.59299999999999,547.5880000000002,546.888,0.0
48148,STARLINK-2491,PAYLOAD,2021-07-14 09:38:27,15.0639155,4.8899999999999996e-05,53.0539,240.0032,109.0302,251.074,1.8766e-05,-2e-08,0.0,0 STARLINK-2491,1 48148U 21027BJ  21195.40171258 -.00000002  00000-0  18766-4 0  9998,2 48148  53.0539 240.0032 0000489 109.0302 251.0740 15.06391550 16280,6925.374,95.59299999999999,547.578,546.901,0.0
48148,STARLINK-2491,PAYLOAD,2021-07-14 12:49:32,15.06391975,4.74e-05,53.0539,239.4077,105.4941,254.6101,2.222e-05,5e-07,0.0,0 STARLINK-2491,1 48148U 21027BJ  21195.53440632  .00000050  00000-0  22220-4 0  9999,2 48148  53.0539 239.4077 0000474 105.4941 254.6101 15.06391975 16308,6925.373000000001,95.59299999999999,547.566,546.91,0.0
48148,STARLINK-2491,PAYLOAD,2021-07-15 06:20:28,15.06394201,4.2700000000000015e-05,53.0539,236.1312,101.6644,258.4393,2.1078e-05,3.3e-07,0.0,0 STARLINK-2491,1 48148U 21027BJ  21196.26422194  .00000033  00000-0  21078-4 0  9994,2 48148  53.0539 236.1312 0000427 101.6644 258.4393 15.06394201 16029,6925.366,95.59299999999999,547.5269999999998,546.936,0.0
48148,STARLINK-2491,PAYLOAD,2021-07-16 09:24:39,15.06396405,3.950000000000001e-05,53.0539,231.0678,96.3979,263.7055,2.2431e-05,5.3e-07,0.0,0 STARLINK-2491,1 48148U 21027BJ  21197.39211820  .00000053  00000-0  22431-4 0  9997,2 48148  53.0539 231.0678 0000395  96.3979 263.7055 15.06396405 16193,6925.36,95.59200000000001,547.498,546.951,0.0
48148,STARLINK-2491,PAYLOAD,2021-07-17 09:17:44,15.06398471,3.85e-05,53.053999999999995,226.6001,86.0259,274.0774,2.3915e-05,7.5e-07,0.0,0 STARLINK-2491,1 48148U 21027BJ  21198.38731928  .00000075  00000-0  23915-4 0  9995,2 48148  53.0540 226.6001 0000385  86.0259 274.0774 15.06398471 16739,6925.353,95.59200000000001,547.485,546.952,0.0
48148,STARLINK-2491,PAYLOAD,2021-07-17 10:53:16,15.06398532,3.8e-05,53.0539,226.3023,79.8344,280.2688,2.3915e-05,7.5e-07,0.0,0 STARLINK-2491,1 48148U 21027BJ  21198.45366606  .00000075  00000-0  23915-4 0  9990,2 48148  53.0539 226.3023 0000380  79.8344 280.2688 15.06398532 16357,6925.353,95.59200000000001,547.481,546.955,0.0
48148,STARLINK-2491,PAYLOAD,2021-07-18 10:46:21,15.06400334,3.9299999999999986e-05,53.0538,221.8342,66.6203,293.4827,2.0736999999999998e-05,2.8e-07,0.0,0 STARLINK-2491,1 48148U 21027BJ  21199.44886574  .00000028  00000-0  20737-4 0  9998,2 48148  53.0538 221.8342 0000393  66.6203 293.4827 15.06400334 16896,6925.348000000001,95.59200000000001,547.485,546.94,0.0
48148,STARLINK-2491,PAYLOAD,2021-07-19 01:06:13,15.06401136,3.72e-05,53.0536,219.1532,63.4475,296.6552,1.3328e-05,-8.2e-07,0.0,0 STARLINK-2491,1 48148U 21027BJ  21200.04598520 -.00000082  00000-0  13328-4 0  9997,2 48148  53.0536 219.1532 0000372  63.4475 296.6552 15.06401136 16596,6925.345,95.59200000000001,547.4680000000002,546.952,0.0
48148,STARLINK-2491,PAYLOAD,2021-07-19 18:37:08,15.06401858,3.96e-05,53.0537,215.8771,58.0406,302.0621,1.7702e-05,-1.7e-07,0.0,0 STARLINK-2491,1 48148U 21027BJ  21200.77579719 -.00000017  00000-0  17702-4 0  9994,2 48148  53.0537 215.8771 0000396  58.0406 302.0621 15.06401858 17091,6925.343000000003,95.59200000000001,547.482,546.934,0.0
48148,STARLINK-2491,PAYLOAD,2021-07-20 08:56:59,15.06403106,4.46e-05,53.0537,213.1967,48.4091,311.6937,2.4169000000000002e-05,7.9e-07,0.0,0 STARLINK-2491,1 48148U 21027BJ  21201.37291549  .00000079  00000-0  24169-4 0  9995,2 48148  53.0537 213.1967 0000446  48.4091 311.6937 15.06403106 16798,6925.339,95.59200000000001,547.513,546.895,0.0
48148,STARLINK-2491,PAYLOAD,2021-07-20 12:08:04,15.06403236,4.55e-05,53.0537,212.6011,47.0661,313.0366,2.4489000000000002e-05,8.4e-07,0.0,0 STARLINK-2491,1 48148U 21027BJ  21201.50560854  .00000084  00000-0  24489-4 0  9999,2 48148  53.0537 212.6011 0000455  47.0661 313.0366 15.06403236 17203,6925.339,95.59200000000001,547.519,546.889,0.0
48148,STARLINK-2491,PAYLOAD,2021-07-21 10:25:37,15.06404678,5.11e-05,53.0538,208.4313,42.1196,317.9832,2.3863000000000002e-05,7.4e-07,0.0,0 STARLINK-2491,1 48148U 21027BJ  21202.43445923  .00000074  00000-0  23863-4 0  9995,2 48148  53.0538 208.4313 0000511  42.1196 317.9832 15.06404678 16957,6925.334,95.59200000000001,547.553,546.845,0.0
48148,STARLINK-2491,PAYLOAD,2021-07-21 12:01:09,15.06404854,5.14e-05,53.0538,208.1334,41.8169,318.286,2.4735e-05,8.7e-07,0.0,0 STARLINK-2491,1 48148U 21027BJ  21202.50080557  .00000087  00000-0  24735-4 0  9994,2 48148  53.0538 208.1334 0000514  41.8169 318.2860 15.06404854 17352,6925.334,95.59200000000001,547.555,546.8430000000002,0.0
48148,STARLINK-2491,PAYLOAD,2021-07-22 02:21:01,15.06392078,5.5100000000000004e-05,53.0539,205.4527,42.3016,317.8016,-8.441299999999999e-05,-1.538e-05,0.0,0 STARLINK-2491,1 48148U 21027BJ  21203.09793802 -.00001538  00000-0 -84413-4 0  9996,2 48148  53.0539 205.4527 0000551  42.3016 317.8016 15.06392078 17054,6925.373000000001,95.59299999999999,547.619,546.856,0.0
